FLOCK 4G-17             
1 62681U 25009CA  26192.79284571  .00006574  00000+0  22870-3 0  9995
2 62681  97.3926 274.0357 0003733 227.7487 132.3437 15.30038478140313
FLOCK 4G-33             
1 62685U 25009CE  26192.77865405  .00003623  00000+0  14470-3 0  9997
2 62685  97.3946 272.3707 0004304 229.0157 131.0710 15.25774155 82557
FLOCK 4H-1              
1 66704U 25276AQ  26192.72461284  .00003675  00000+0  16971-3 0  9996
2 66704  97.4174 266.0249 0001659 183.9350 176.1873 15.20825242 34164
FLOCK 4H-2              
1 66705U 25276AR  26192.76471239  .00003976  00000+0  18193-3 0  9994
2 66705  97.4171 266.1117 0001205 157.9538 202.1750 15.21095519 34175
FLOCK 4H-3              
1 66706U 25276AS  26192.75276075  .00004053  00000+0  19014-3 0  9995
2 66706  97.4241 266.0260 0002355 268.8586  91.2379 15.20216892 34154
FLOCK 4H-4              
1 66707U 25276AT  26192.72252733  .00003918  00000+0  18505-3 0  9991
2 66707  97.4221 265.8651 0003063 273.0050  87.0835 15.20008183 34146
FLOCK 4H-5              
1 66708U 25276AU  26192.71699469  .00003438  00000+0  15874-3 0  9995
2 66708  97.4175 266.0384 0001072 131.4051 228.7277 15.20877149 34169
FLOCK 4H-6              
1 66709U 25276AV  26192.76228209  .00003905  00000+0  18145-3 0  9994
2 66709  97.4225 266.1255 0002106 219.5995 140.5087 15.20577664 34167
FLOCK 4H-7              
1 66710U 25276AW  26192.74356189  .00004276  00000+0  19967-3 0  9998
2 66710  97.4184 265.8674 0000844 334.3540  25.7653 15.20351782 34156
FLOCK 4H-8              
1 66711U 25276AX  26192.73469890  .00004097  00000+0  19085-3 0  9994
2 66711  97.4222 266.0062 0001911 292.0403  68.0629 15.20459960 34158
FLOCK 4H-9              
1 66712U 25276AY  26192.74918601  .00004300  00000+0  19841-3 0  9992
2 66712  97.4212 266.1140 0002113 230.0130 130.0920 15.20758372 34164
FLOCK 4H-10             
1 66713U 25276AZ  26192.77271907  .00003983  00000+0  18735-3 0  9994
2 66713  97.4189 265.8509 0002896 273.8697  86.2207 15.20135039 34152
FLOCK 4H-11             
1 66714U 25276BA  26192.73918559  .00007935  00000+0  33766-3 0  9994
2 66714  97.4201 266.3942 0001251 267.5718  92.5375 15.23270478 34182
FLOCK 4H-12             
1 66715U 25276BB  26192.73629812  .00004204  00000+0  19391-3 0  9990
2 66715  97.4189 266.0381 0001555 191.7410 168.3789 15.20787456 34475
FLOCK 4H-13             
1 66716U 25276BC  26192.77293003  .00003860  00000+0  17778-3 0  9998
2 66716  97.4220 266.2457 0001675 145.4702 214.6643 15.20886154 34177
FLOCK 4H-14             
1 66717U 25276BD  26192.80016659  .00003857  00000+0  17535-3 0  9990
2 66717  97.4202 266.3178 0001601 143.4631 216.6714 15.21337073 33438
