{"fetched_at":"2026-07-12T07:15:21.624Z","source":"https://celestrak.org/NORAD/elements/gp.php?GROUP=planet&FORMAT=JSON","constellation":"superdove","records":[{"OBJECT_NAME":"FLOCK 4G-17","OBJECT_ID":"2025-009CA","EPOCH":"2026-07-11T19:01:41.869344","CLASSIFICATION_TYPE":"U","MEAN_MOTION":15.30038478,"ECCENTRICITY":0.00037337,"INCLINATION":97.3926,"RA_OF_ASC_NODE":274.0357,"ARG_OF_PERICENTER":227.7487,"MEAN_ANOMALY":132.3437,"EPHEMERIS_TYPE":0,"NORAD_CAT_ID":62681,"ELEMENT_SET_NO":999,"REV_AT_EPOCH":14031,"BSTAR":0.00022870087,"MEAN_MOTION_DOT":0.00006574,"MEAN_MOTION_DDOT":0},{"OBJECT_NAME":"FLOCK 4G-33","OBJECT_ID":"2025-009CE","EPOCH":"2026-07-11T18:41:15.709920","CLASSIFICATION_TYPE":"U","MEAN_MOTION":15.25774155,"ECCENTRICITY":0.00043045,"INCLINATION":97.3946,"RA_OF_ASC_NODE":272.3707,"ARG_OF_PERICENTER":229.0157,"MEAN_ANOMALY":131.071,"EPHEMERIS_TYPE":0,"NORAD_CAT_ID":62685,"ELEMENT_SET_NO":999,"REV_AT_EPOCH":8255,"BSTAR":0.000144702,"MEAN_MOTION_DOT":0.00003623,"MEAN_MOTION_DDOT":0},{"OBJECT_NAME":"FLOCK 4H-1","OBJECT_ID":"2025-276AQ","EPOCH":"2026-07-11T17:23:26.549376","CLASSIFICATION_TYPE":"U","MEAN_MOTION":15.20825242,"ECCENTRICITY":0.00016599,"INCLINATION":97.4174,"RA_OF_ASC_NODE":266.0249,"ARG_OF_PERICENTER":183.935,"MEAN_ANOMALY":176.1873,"EPHEMERIS_TYPE":0,"NORAD_CAT_ID":66704,"ELEMENT_SET_NO":999,"REV_AT_EPOCH":3416,"BSTAR":0.00016971011,"MEAN_MOTION_DOT":0.00003675,"MEAN_MOTION_DDOT":0},{"OBJECT_NAME":"FLOCK 4H-2","OBJECT_ID":"2025-276AR","EPOCH":"2026-07-11T18:21:11.150496","CLASSIFICATION_TYPE":"U","MEAN_MOTION":15.21095519,"ECCENTRICITY":0.00012059,"INCLINATION":97.4171,"RA_OF_ASC_NODE":266.1117,"ARG_OF_PERICENTER":157.9538,"MEAN_ANOMALY":202.175,"EPHEMERIS_TYPE":0,"NORAD_CAT_ID":66705,"ELEMENT_SET_NO":999,"REV_AT_EPOCH":3417,"BSTAR":0.0001819335,"MEAN_MOTION_DOT":0.00003976,"MEAN_MOTION_DDOT":0},{"OBJECT_NAME":"FLOCK 4H-3","OBJECT_ID":"2025-276AS","EPOCH":"2026-07-11T18:03:58.528800","CLASSIFICATION_TYPE":"U","MEAN_MOTION":15.20216892,"ECCENTRICITY":0.00023557,"INCLINATION":97.4241,"RA_OF_ASC_NODE":266.026,"ARG_OF_PERICENTER":268.8586,"MEAN_ANOMALY":91.2379,"EPHEMERIS_TYPE":0,"NORAD_CAT_ID":66706,"ELEMENT_SET_NO":999,"REV_AT_EPOCH":3415,"BSTAR":0.0001901369,"MEAN_MOTION_DOT":0.00004053,"MEAN_MOTION_DDOT":0},{"OBJECT_NAME":"FLOCK 4H-4","OBJECT_ID":"2025-276AT","EPOCH":"2026-07-11T17:20:26.361312","CLASSIFICATION_TYPE":"U","MEAN_MOTION":15.20008183,"ECCENTRICITY":0.00030635,"INCLINATION":97.4221,"RA_OF_ASC_NODE":265.8651,"ARG_OF_PERICENTER":273.005,"MEAN_ANOMALY":87.0835,"EPHEMERIS_TYPE":0,"NORAD_CAT_ID":66707,"ELEMENT_SET_NO":999,"REV_AT_EPOCH":3414,"BSTAR":0.00018504679,"MEAN_MOTION_DOT":0.00003918,"MEAN_MOTION_DDOT":0},{"OBJECT_NAME":"FLOCK 4H-5","OBJECT_ID":"2025-276AU","EPOCH":"2026-07-11T17:12:28.341216","CLASSIFICATION_TYPE":"U","MEAN_MOTION":15.20877149,"ECCENTRICITY":0.00010723,"INCLINATION":97.4175,"RA_OF_ASC_NODE":266.0384,"ARG_OF_PERICENTER":131.4051,"MEAN_ANOMALY":228.7277,"EPHEMERIS_TYPE":0,"NORAD_CAT_ID":66708,"ELEMENT_SET_NO":999,"REV_AT_EPOCH":3416,"BSTAR":0.00015873603,"MEAN_MOTION_DOT":0.00003438,"MEAN_MOTION_DDOT":0},{"OBJECT_NAME":"FLOCK 4H-6","OBJECT_ID":"2025-276AV","EPOCH":"2026-07-11T18:17:41.172576","CLASSIFICATION_TYPE":"U","MEAN_MOTION":15.20577664,"ECCENTRICITY":0.00021066,"INCLINATION":97.4225,"RA_OF_ASC_NODE":266.1255,"ARG_OF_PERICENTER":219.5995,"MEAN_ANOMALY":140.5087,"EPHEMERIS_TYPE":0,"NORAD_CAT_ID":66709,"ELEMENT_SET_NO":999,"REV_AT_EPOCH":3416,"BSTAR":0.00018145221,"MEAN_MOTION_DOT":0.00003905,"MEAN_MOTION_DDOT":0},{"OBJECT_NAME":"FLOCK 4H-7","OBJECT_ID":"2025-276AW","EPOCH":"2026-07-11T17:50:43.747296","CLASSIFICATION_TYPE":"U","MEAN_MOTION":15.20351782,"ECCENTRICITY":0.00008447,"INCLINATION":97.4184,"RA_OF_ASC_NODE":265.8674,"ARG_OF_PERICENTER":334.354,"MEAN_ANOMALY":25.7653,"EPHEMERIS_TYPE":0,"NORAD_CAT_ID":66710,"ELEMENT_SET_NO":999,"REV_AT_EPOCH":3415,"BSTAR":0.00019966641,"MEAN_MOTION_DOT":0.00004276,"MEAN_MOTION_DDOT":0},{"OBJECT_NAME":"FLOCK 4H-8","OBJECT_ID":"2025-276AX","EPOCH":"2026-07-11T17:37:57.984960","CLASSIFICATION_TYPE":"U","MEAN_MOTION":15.2045996,"ECCENTRICITY":0.00019111,"INCLINATION":97.4222,"RA_OF_ASC_NODE":266.0062,"ARG_OF_PERICENTER":292.0403,"MEAN_ANOMALY":68.0629,"EPHEMERIS_TYPE":0,"NORAD_CAT_ID":66711,"ELEMENT_SET_NO":999,"REV_AT_EPOCH":3415,"BSTAR":0.00019085104,"MEAN_MOTION_DOT":0.00004097,"MEAN_MOTION_DDOT":0},{"OBJECT_NAME":"FLOCK 4H-9","OBJECT_ID":"2025-276AY","EPOCH":"2026-07-11T17:58:49.671264","CLASSIFICATION_TYPE":"U","MEAN_MOTION":15.20758372,"ECCENTRICITY":0.00021138,"INCLINATION":97.4212,"RA_OF_ASC_NODE":266.114,"ARG_OF_PERICENTER":230.013,"MEAN_ANOMALY":130.092,"EPHEMERIS_TYPE":0,"NORAD_CAT_ID":66712,"ELEMENT_SET_NO":999,"REV_AT_EPOCH":3416,"BSTAR":0.0001984122,"MEAN_MOTION_DOT":0.000043,"MEAN_MOTION_DDOT":0},{"OBJECT_NAME":"FLOCK 4H-10","OBJECT_ID":"2025-276AZ","EPOCH":"2026-07-11T18:32:42.927648","CLASSIFICATION_TYPE":"U","MEAN_MOTION":15.20135039,"ECCENTRICITY":0.00028964,"INCLINATION":97.4189,"RA_OF_ASC_NODE":265.8509,"ARG_OF_PERICENTER":273.8697,"MEAN_ANOMALY":86.2207,"EPHEMERIS_TYPE":0,"NORAD_CAT_ID":66713,"ELEMENT_SET_NO":999,"REV_AT_EPOCH":3415,"BSTAR":0.00018735241,"MEAN_MOTION_DOT":0.00003983,"MEAN_MOTION_DDOT":0},{"OBJECT_NAME":"FLOCK 4H-11","OBJECT_ID":"2025-276BA","EPOCH":"2026-07-11T17:44:25.634976","CLASSIFICATION_TYPE":"U","MEAN_MOTION":15.23270478,"ECCENTRICITY":0.00012513,"INCLINATION":97.4201,"RA_OF_ASC_NODE":266.3942,"ARG_OF_PERICENTER":267.5718,"MEAN_ANOMALY":92.5375,"EPHEMERIS_TYPE":0,"NORAD_CAT_ID":66714,"ELEMENT_SET_NO":999,"REV_AT_EPOCH":3418,"BSTAR":0.00033766478,"MEAN_MOTION_DOT":0.00007935,"MEAN_MOTION_DDOT":0},{"OBJECT_NAME":"FLOCK 4H-12","OBJECT_ID":"2025-276BB","EPOCH":"2026-07-11T17:40:16.157568","CLASSIFICATION_TYPE":"U","MEAN_MOTION":15.20787456,"ECCENTRICITY":0.00015551,"INCLINATION":97.4189,"RA_OF_ASC_NODE":266.0381,"ARG_OF_PERICENTER":191.741,"MEAN_ANOMALY":168.3789,"EPHEMERIS_TYPE":0,"NORAD_CAT_ID":66715,"ELEMENT_SET_NO":999,"REV_AT_EPOCH":3447,"BSTAR":0.00019390767,"MEAN_MOTION_DOT":0.00004204,"MEAN_MOTION_DDOT":0},{"OBJECT_NAME":"FLOCK 4H-13","OBJECT_ID":"2025-276BC","EPOCH":"2026-07-11T18:33:01.154592","CLASSIFICATION_TYPE":"U","MEAN_MOTION":15.20886154,"ECCENTRICITY":0.00016757,"INCLINATION":97.422,"RA_OF_ASC_NODE":266.2457,"ARG_OF_PERICENTER":145.4702,"MEAN_ANOMALY":214.6643,"EPHEMERIS_TYPE":0,"NORAD_CAT_ID":66716,"ELEMENT_SET_NO":999,"REV_AT_EPOCH":3417,"BSTAR":0.00017778255,"MEAN_MOTION_DOT":0.0000386,"MEAN_MOTION_DDOT":0},{"OBJECT_NAME":"FLOCK 4H-14","OBJECT_ID":"2025-276BD","EPOCH":"2026-07-11T19:12:14.393376","CLASSIFICATION_TYPE":"U","MEAN_MOTION":15.21337073,"ECCENTRICITY":0.00016012,"INCLINATION":97.4202,"RA_OF_ASC_NODE":266.3178,"ARG_OF_PERICENTER":143.4631,"MEAN_ANOMALY":216.6714,"EPHEMERIS_TYPE":0,"NORAD_CAT_ID":66717,"ELEMENT_SET_NO":999,"REV_AT_EPOCH":3343,"BSTAR":0.00017535395,"MEAN_MOTION_DOT":0.00003857,"MEAN_MOTION_DDOT":0}]}
